[
    {
        "Altitude(m)": 702759.1327545802,
        "Argument of Periapsis(deg)": 0.010251109067964361,
        "Eccentricity": 0.0,
        "Inclination(deg)": 45.0,
        "Latitude(deg)": 15.6213486044759,
        "Longitude(deg)": -31.840565261417055,
        "Mean Anomaly(deg)": -202.34740501726725,
        "RAAN(deg)": 264.99032325268763,
        "Satellite Name": "Constellation 1 1175",
        "Satellite Number": 1175,
        "Semi-Major Axis(m)": 7083131.272910544,
        "Time(s)": 171
    },
    {
        "Altitude(m)": 702757.5088479724,
        "Argument of Periapsis(deg)": 0.010311057074209765,
        "Eccentricity": 0.0,
        "Inclination(deg)": 45.0,
        "Latitude(deg)": 15.579846925702865,
        "Longitude(deg)": -31.798480958696548,
        "Mean Anomaly(deg)": -202.28670387701735,
        "RAAN(deg)": 264.99026666352205,
        "Satellite Name": "Constellation 1 1175",
        "Satellite Number": 1175,
        "Semi-Major Axis(m)": 7083131.272910544,
        "Time(s)": 172
    },
    {
        "Altitude(m)": 702755.9019212939,
        "Argument of Periapsis(deg)": 0.010371005080455171,
        "Eccentricity": 0.0,
        "Inclination(deg)": 45.0,
        "Latitude(deg)": 15.53833543000522,
        "Longitude(deg)": -31.75641521556866,
        "Mean Anomaly(deg)": -202.22600273676747,
        "RAAN(deg)": 264.9902100743565,
        "Satellite Name": "Constellation 1 1175",
        "Satellite Number": 1175,
        "Semi-Major Axis(m)": 7083131.272910544,
        "Time(s)": 173
    },
    {
        "Altitude(m)": 702754.3119994459,
        "Argument of Periapsis(deg)": 0.010430953086700577,
        "Eccentricity": 0.0,
        "Inclination(deg)": 45.0,
        "Latitude(deg)": 15.496814148745624,
        "Longitude(deg)": -31.71436797714792,
        "Mean Anomaly(deg)": -202.16530159651765,
        "RAAN(deg)": 264.9901534851909,
        "Satellite Name": "Constellation 1 1175",
        "Satellite Number": 1175,
        "Semi-Major Axis(m)": 7083131.272910544,
        "Time(s)": 174
    },
    {
        "Altitude(m)": 702752.7391072644,
        "Argument of Periapsis(deg)": 0.010490901092945983,
        "Eccentricity": 0.0,
        "Inclination(deg)": 45.0,
        "Latitude(deg)": 15.45528311325053,
        "Longitude(deg)": -31.67233918857964,
        "Mean Anomaly(deg)": -202.10460045626766,
        "RAAN(deg)": 264.9900968960253,
        "Satellite Name": "Constellation 1 1175",
        "Satellite Number": 1175,
        "Semi-Major Axis(m)": 7083131.272910544,
        "Time(s)": 175
    },
    {
        "Altitude(m)": 702751.1832695066,
        "Argument of Periapsis(deg)": 0.010550849099191389,
        "Eccentricity": 0.0,
        "Inclination(deg)": 45.0,
        "Latitude(deg)": 15.413742354810578,
        "Longitude(deg)": -31.630328795040214,
        "Mean Anomaly(deg)": -202.04389931601781,
        "RAAN(deg)": 264.9900403068598,
        "Satellite Name": "Constellation 1 1175",
        "Satellite Number": 1175,
        "Semi-Major Axis(m)": 7083131.272910544,
        "Time(s)": 176
    },
    {
        "Altitude(m)": 702749.6445108812,
        "Argument of Periapsis(deg)": 0.010610797105436795,
        "Eccentricity": 0.0,
        "Inclination(deg)": 45.0,
        "Latitude(deg)": 15.372191904680014,
        "Longitude(deg)": -31.588336741736374,
        "Mean Anomaly(deg)": -201.98319817576785,
        "RAAN(deg)": 264.9899837176942,
        "Satellite Name": "Constellation 1 1175",
        "Satellite Number": 1175,
        "Semi-Major Axis(m)": 7083131.272910544,
        "Time(s)": 177
    },
    {
        "Altitude(m)": 702748.1228560023,
        "Argument of Periapsis(deg)": 0.0106707451116822,
        "Eccentricity": 0.0,
        "Inclination(deg)": 45.0,
        "Latitude(deg)": 15.330631794077307,
        "Longitude(deg)": -31.546363142002846,
        "Mean Anomaly(deg)": -201.922497035518,
        "RAAN(deg)": 264.9899271285287,
        "Satellite Name": "Constellation 1 1175",
        "Satellite Number": 1175,
        "Semi-Major Axis(m)": 7083131.272910544,
        "Time(s)": 178
    },
    {
        "Altitude(m)": 702746.6183294323,
        "Argument of Periapsis(deg)": 0.010730693117927606,
        "Eccentricity": 0.0,
        "Inclination(deg)": 45.0,
        "Latitude(deg)": 15.289062054185582,
        "Longitude(deg)": -31.50440760491397,
        "Mean Anomaly(deg)": -201.86179589526802,
        "RAAN(deg)": 264.98987053936304,
        "Satellite Name": "Constellation 1 1175",
        "Satellite Number": 1175,
        "Semi-Major Axis(m)": 7083131.272910544,
        "Time(s)": 179
    },
    {
        "Altitude(m)": 702745.1309556544,
        "Argument of Periapsis(deg)": 0.01079064112417301,
        "Eccentricity": 0.0,
        "Inclination(deg)": 45.0,
        "Latitude(deg)": 15.247482716151906,
        "Longitude(deg)": -31.462470243865816,
        "Mean Anomaly(deg)": -201.80109475501817,
        "RAAN(deg)": 264.98981395019746,
        "Satellite Name": "Constellation 1 1175",
        "Satellite Number": 1175,
        "Semi-Major Axis(m)": 7083131.272910544,
        "Time(s)": 180
    },
    {
        "Altitude(m)": 702743.6607590872,
        "Argument of Periapsis(deg)": 0.010850589130418416,
        "Eccentricity": 0.0,
        "Inclination(deg)": 45.0,
        "Latitude(deg)": 15.205893811087769,
        "Longitude(deg)": -31.420551004187868,
        "Mean Anomaly(deg)": -201.74039361476827,
        "RAAN(deg)": 264.98975736103193,
        "Satellite Name": "Constellation 1 1175",
        "Satellite Number": 1175,
        "Semi-Major Axis(m)": 7083131.272910544,
        "Time(s)": 181
    },
    {
        "Altitude(m)": 702742.2077640697,
        "Argument of Periapsis(deg)": 0.01091053713666382,
        "Eccentricity": 0.0,
        "Inclination(deg)": 45.0,
        "Latitude(deg)": 15.164295370069306,
        "Longitude(deg)": -31.37864983124046,
        "Mean Anomaly(deg)": -201.67969247451833,
        "RAAN(deg)": 264.98970077186635,
        "Satellite Name": "Constellation 1 1175",
        "Satellite Number": 1175,
        "Semi-Major Axis(m)": 7083131.272910544,
        "Time(s)": 182
    },
    {
        "Altitude(m)": 702740.7719948883,
        "Argument of Periapsis(deg)": 0.010970485142909228,
        "Eccentricity": 0.0,
        "Inclination(deg)": 45.0,
        "Latitude(deg)": 15.122687424137395,
        "Longitude(deg)": -31.336766670414413,
        "Mean Anomaly(deg)": -201.6189913342685,
        "RAAN(deg)": 264.98964418270083,
        "Satellite Name": "Constellation 1 1175",
        "Satellite Number": 1175,
        "Semi-Major Axis(m)": 7083131.272910544,
        "Time(s)": 183
    },
    {
        "Altitude(m)": 702739.3534757385,
        "Argument of Periapsis(deg)": 0.011030433149154634,
        "Eccentricity": 0.0,
        "Inclination(deg)": 45.0,
        "Latitude(deg)": 15.081070004297588,
        "Longitude(deg)": -31.294901467131197,
        "Mean Anomaly(deg)": -201.5582901940186,
        "RAAN(deg)": 264.9895875935352,
        "Satellite Name": "Constellation 1 1175",
        "Satellite Number": 1175,
        "Semi-Major Axis(m)": 7083131.272910544,
        "Time(s)": 184
    },
    {
        "Altitude(m)": 702737.9522307585,
        "Argument of Periapsis(deg)": 0.01109038115540004,
        "Eccentricity": 0.0,
        "Inclination(deg)": 45.0,
        "Latitude(deg)": 15.03944314152017,
        "Longitude(deg)": -31.253054334939687,
        "Mean Anomaly(deg)": -201.49758905376868,
        "RAAN(deg)": 264.9895310043696,
        "Satellite Name": "Constellation 1 1175",
        "Satellite Number": 1175,
        "Semi-Major Axis(m)": 7083131.272910544,
        "Time(s)": 185
    },
    {
        "Altitude(m)": 702736.5682840111,
        "Argument of Periapsis(deg)": 0.011150329161645444,
        "Eccentricity": 0.0,
        "Inclination(deg)": 45.0,
        "Latitude(deg)": 14.997806866741183,
        "Longitude(deg)": -31.21122488312842,
        "Mean Anomaly(deg)": -201.4368879135188,
        "RAAN(deg)": 264.9894744152041,
        "Satellite Name": "Constellation 1 1175",
        "Satellite Number": 1175,
        "Semi-Major Axis(m)": 7083131.272910544,
        "Time(s)": 186
    },
    {
        "Altitude(m)": 702735.2016594865,
        "Argument of Periapsis(deg)": 0.01121027716789085,
        "Eccentricity": 0.0,
        "Inclination(deg)": 45.0,
        "Latitude(deg)": 14.956161210860982,
        "Longitude(deg)": -31.16941322530732,
        "Mean Anomaly(deg)": -201.37618677326887,
        "RAAN(deg)": 264.9894178260385,
        "Satellite Name": "Constellation 1 1175",
        "Satellite Number": 1175,
        "Semi-Major Axis(m)": 7083131.272910544,
        "Time(s)": 187
    },
    {
        "Altitude(m)": 702733.8523811098,
        "Argument of Periapsis(deg)": 0.011270225174136258,
        "Eccentricity": 0.0,
        "Inclination(deg)": 45.0,
        "Latitude(deg)": 14.914506204745395,
        "Longitude(deg)": -31.127619307019735,
        "Mean Anomaly(deg)": -201.31548563301902,
        "RAAN(deg)": 264.989361236873,
        "Satellite Name": "Constellation 1 1175",
        "Satellite Number": 1175,
        "Semi-Major Axis(m)": 7083131.272910544,
        "Time(s)": 188
    },
    {
        "Altitude(m)": 702732.5204727296,
        "Argument of Periapsis(deg)": 0.011330173180381662,
        "Eccentricity": 0.0,
        "Inclination(deg)": 45.0,
        "Latitude(deg)": 14.872841879225621,
        "Longitude(deg)": -31.085843073839573,
        "Mean Anomaly(deg)": -201.25478449276906,
        "RAAN(deg)": 264.9893046477074,
        "Satellite Name": "Constellation 1 1175",
        "Satellite Number": 1175,
        "Semi-Major Axis(m)": 7083131.272910544,
        "Time(s)": 189
    }
]